{"type":"FeatureCollection","features":[{"type":"Feature","properties":{"code":"MYS"},"geometry":{"type":"MultiPolygon","coordinates":[[[[102.1636,6.1975],[102.187,6.2034],[102.1831,6.223],[102.1668,6.218],[102.1781,6.2336],[102.1996,6.2328],[102.3381,6.177],[102.3799,6.133],[102.5208,5.8717],[102.6263,5.7972],[102.6692,5.725],[102.8757,5.5714],[102.9756,5.5313],[103.1203,5.3813],[103.448,4.8065],[103.4426,4.7428],[103.4694,4.55],[103.4554,4.5],[100.6236,4.5],[100.6455,4.56],[100.5973,4.5719],[100.5944,4.6109],[100.617,4.6383],[100.6326,4.6291],[100.6662,4.6699],[100.6042,4.6658],[100.5945,4.7431],[100.6326,4.7656],[100.6121,4.7724],[100.6174,4.7929],[100.5762,4.7993],[100.5774,4.8543],[100.5501,4.8754],[100.4944,4.8723],[100.5153,4.8891],[100.511,4.9069],[100.4817,4.9247],[100.4539,4.9089],[100.4416,4.9228],[100.3645,5.0843],[100.409,5.1267],[100.4333,5.2112],[100.419,5.2485],[100.4333,5.29],[100.3802,5.3907],[100.3849,5.4993],[100.3508,5.5842],[100.344,5.6693],[100.3763,5.6633],[100.3864,5.6791],[100.3645,5.6941],[100.3757,5.8109],[100.3491,6.0127],[100.2479,6.2208],[100.1746,6.291],[100.1375,6.3805],[100.1273,6.4423],[100.1457,6.5395],[100.1672,6.5661],[100.1561,6.6206],[100.1733,6.7034],[100.2124,6.6892],[100.274,6.6963],[100.3292,6.5578],[100.3874,6.5221],[100.4672,6.5132],[100.6307,6.4448],[100.73,6.4932],[100.7339,6.4564],[100.7733,6.4473],[100.8056,6.4148],[100.833,6.2367],[100.8551,6.2479],[100.9101,6.2358],[100.9743,6.2726],[101.0231,6.241],[101.0817,6.2465],[101.0892,6.1888],[101.0534,6.1576],[101.0525,6.1346],[101.0943,6.0858],[101.0788,5.9382],[101.0711,5.9198],[101.0153,5.8983],[100.9653,5.7924],[100.9986,5.7295],[101.0598,5.7096],[101.1222,5.6299],[101.2123,5.6815],[101.249,5.787],[101.5579,5.9113],[101.6341,5.8556],[101.6308,5.8284],[101.6659,5.7656],[101.6867,5.7612],[101.7268,5.7865],[101.7629,5.7495],[101.8005,5.7399],[101.9129,5.8593],[101.9347,5.9817],[102.06,6.0948],[102.0731,6.2575],[102.1636,6.1975]]],[[[100.3434,5.4176],[100.2887,5.2627],[100.1843,5.2685],[100.1961,5.3],[100.1795,5.4582],[100.2106,5.444],[100.2347,5.4645],[100.2741,5.4685],[100.3434,5.4176]]],[[[99.837,6.2942],[99.8264,6.1907],[99.8056,6.1718],[99.7672,6.2238],[99.8004,6.2728],[99.837,6.2942]]],[[[99.9163,6.3315],[99.8657,6.2905],[99.8446,6.3247],[99.8253,6.3241],[99.7287,6.2615],[99.719,6.3532],[99.6587,6.3626],[99.6452,6.4358],[99.7709,6.4198],[99.8143,6.454],[99.8392,6.4548],[99.842,6.4696],[99.9133,6.3902],[99.9006,6.3643],[99.9163,6.3315]]]]}},{"type":"Feature","properties":{"code":"CHN"},"geometry":{"type":"MultiPolygon","coordinates":[[[[101.7297,21.4742],[101.7151,21.3211],[101.7365,21.2923],[101.8012,21.2671],[101.8237,21.2345],[101.8052,21.2045],[101.7601,21.196],[101.7702,21.1704],[101.756,21.1433],[101.7043,21.1351],[101.6551,21.1892],[101.5818,21.1757],[101.584,21.2244],[101.5176,21.2426],[101.3815,21.2225],[101.2753,21.1741],[101.209,21.2455],[101.2204,21.2963],[101.2074,21.3148],[101.2348,21.3637],[101.1714,21.4034],[101.1863,21.5],[101.7443,21.4956],[101.7297,21.4742]]],[[[100.6217,21.4691],[100.546,21.453],[100.4567,21.455],[100.4234,21.5],[100.6706,21.5],[100.6217,21.4691]]],[[[100.1871,21.4279],[100.1041,21.5],[100.3056,21.5],[100.1871,21.4279]]]]}},{"type":"Feature","properties":{"code":"VNM"},"geometry":{"type":"MultiPolygon","coordinates":[[[[106.6707,16.4444],[106.6412,16.5104],[106.6402,16.5866],[106.5724,16.6136],[106.5407,16.6591],[106.5245,16.9892],[106.4968,16.9639],[106.4114,16.9957],[106.3871,17.0472],[106.3949,17.068],[106.3064,17.1765],[106.3105,17.2271],[106.2846,17.2848],[106.26,17.2892],[106.2218,17.2449],[106.1854,17.2574],[106.0193,17.3945],[105.8199,17.6216],[105.7231,17.6735],[105.644,17.8201],[105.6052,17.8543],[105.5942,17.8881],[105.606,17.9641],[105.5593,18.0153],[105.5465,18.059],[105.476,18.1273],[105.4667,18.181],[105.41,18.2019],[105.3655,18.151],[105.2951,18.1956],[105.2925,18.2527],[105.2359,18.2495],[105.1662,18.3068],[105.1629,18.366],[105.0908,18.4265],[105.08,18.4544],[105.1136,18.5808],[105.1281,18.5989],[105.1621,18.5982],[105.1695,18.6149],[105.1127,18.6983],[105.0646,18.6966],[104.9902,18.733],[104.9197,18.7356],[104.8994,18.7706],[104.8729,18.778],[104.8016,18.7751],[104.7103,18.7961],[104.6856,18.8248],[104.6462,18.8325],[104.5561,18.8965],[104.4977,18.968],[104.4132,18.9831],[104.3552,19.0479],[104.2599,19.1041],[104.2106,19.1007],[104.1981,19.1469],[104.1477,19.1829],[104.0367,19.2302],[103.9728,19.2253],[103.9109,19.263],[103.8927,19.2939],[103.8484,19.2999],[103.9528,19.391],[104.0383,19.4129],[104.0605,19.4713],[104.09,19.4837],[104.0716,19.5591],[104.0174,19.6004],[104.001,19.6807],[104.0887,19.6519],[104.1363,19.6875],[104.229,19.706],[104.277,19.6839],[104.2953,19.6549],[104.3419,19.683],[104.3801,19.6853],[104.5058,19.6028],[104.5792,19.618],[104.6143,19.6074],[104.676,19.7247],[104.805,19.7909],[104.8166,19.8481],[104.7555,19.867],[104.7807,19.9081],[104.8579,19.9552],[104.8738,19.9827],[104.9495,19.9955],[104.944,20.0671],[104.9644,20.0761],[104.9049,20.1346],[104.908,20.1753],[104.8192,20.221],[104.6909,20.1965],[104.6571,20.2127],[104.6574,20.2796],[104.6886,20.301],[104.6809,20.341],[104.5755,20.4141],[104.4324,20.4111],[104.3598,20.4397],[104.4238,20.4954],[104.445,20.5346],[104.4958,20.5119],[104.5426,20.5357],[104.6152,20.6465],[104.4923,20.7021],[104.4526,20.7636],[104.3891,20.771],[104.2789,20.8915],[104.2211,20.892],[104.1939,20.9299],[104.0923,20.9612],[104.0567,20.9588],[104.0106,20.9081],[103.7853,20.846],[103.7567,20.796],[103.7546,20.7429],[103.7072,20.7218],[103.7143,20.6717],[103.6763,20.6565],[103.5779,20.7329],[103.4894,20.7525],[103.4404,20.8157],[103.3583,20.7877],[103.2634,20.8264],[103.2069,20.8246],[103.1364,20.8505],[103.0867,20.902],[103.0145,21.0405],[102.9468,21.0759],[102.9256,21.1417],[102.883,21.1764],[102.8879,21.2269],[102.8502,21.2517],[102.8013,21.2548],[102.8752,21.3053],[102.8838,21.3884],[102.918,21.4501],[102.8497,21.4254],[102.9006,21.5],[106.7,21.5],[106.7,21.0128],[106.6421,21.0202],[106.683,21.0058],[106.6558,20.9997],[106.6763,20.9587],[106.7,20.9521],[106.7,20.6922],[106.6626,20.698],[106.7,20.6734],[106.7,20.6571],[106.6375,20.6281],[106.5868,20.6633],[106.6272,20.6166],[106.6248,20.5946],[106.5186,20.541],[106.5506,20.5324],[106.5799,20.5472],[106.5677,20.5249],[106.5799,20.4783],[106.537,20.4621],[106.5186,20.4373],[106.5617,20.4551],[106.5942,20.4482],[106.5842,20.3818],[106.5731,20.3685],[106.5596,20.3759],[106.5776,20.359],[106.5926,20.2754],[106.5817,20.2642],[106.537,20.3091],[106.4981,20.3083],[106.5485,20.2914],[106.5696,20.232],[106.3807,20.212],[106.388,20.1975],[106.197,20.0128],[106.2033,20.0475],[106.176,19.9923],[106.1071,19.965],[106.1071,20.0333],[106.0835,19.965],[106.0252,19.9992],[105.9556,19.9255],[105.9568,19.8756],[105.9358,19.8483],[105.9289,19.7936],[105.9153,19.8073],[105.8674,19.7732],[105.9289,19.78],[105.9234,19.7668],[105.8953,19.7213],[105.867,19.7211],[105.8259,19.6422],[105.819,19.5876],[105.8176,19.61],[105.8039,19.613],[105.7909,19.6035],[105.7918,19.5876],[105.8054,19.6087],[105.819,19.5739],[105.8128,19.4232],[105.7986,19.4306],[105.7713,19.4033],[105.8101,19.3215],[105.8128,19.307],[105.7918,19.3207],[105.8088,19.2802],[105.781,19.2649],[105.7723,19.236],[105.7434,19.2319],[105.7371,19.1085],[105.6956,19.0811],[105.6683,19.0895],[105.6438,19.0654],[105.6133,18.9855],[105.6348,18.9098],[105.7166,18.8546],[105.7029,18.8341],[105.6751,18.8546],[105.6887,18.8266],[105.7201,18.8236],[105.752,18.7863],[105.7507,18.6628],[105.77,18.6716],[105.7644,18.759],[105.7835,18.7473],[105.8259,18.5939],[105.8792,18.5109],[105.9153,18.4731],[105.9495,18.471],[105.9773,18.4021],[106.1101,18.2755],[106.1122,18.2629],[106.0934,18.2587],[106.1658,18.2656],[106.2708,18.2041],[106.346,18.1327],[106.354,18.1147],[106.3241,18.1181],[106.3063,18.1005],[106.3403,18.1005],[106.3467,18.0595],[106.3602,18.1005],[106.395,18.1005],[106.4224,18.1284],[106.4348,18.1235],[106.4277,18.0729],[106.5248,17.9496],[106.4551,17.8818],[106.436,17.882],[106.451,17.8657],[106.4429,17.8466],[106.4701,17.7482],[106.4981,17.7106],[106.4895,17.7026],[106.3745,17.7653],[106.2852,17.7721],[106.4292,17.7311],[106.3831,17.7192],[106.3796,17.6988],[106.4087,17.6828],[106.395,17.7032],[106.4175,17.713],[106.5044,17.6828],[106.6346,17.4704],[106.7,17.4041],[106.6929,16.4279],[106.6707,16.4444]]],[[[106.6558,10.5219],[106.6687,10.4945],[106.5942,10.4393],[106.5799,10.4877],[106.5819,10.4528],[106.5974,10.4331],[106.6301,10.4458],[106.6489,10.4741],[106.6702,10.4326],[106.7,10.4444],[106.7,10.289],[106.5983,10.2885],[106.4224,10.317],[106.4803,10.2808],[106.7,10.2067],[106.7,10.0836],[106.6687,10.0324],[106.6841,10.012],[106.6642,10.0061],[106.6489,9.9744],[106.5911,9.9808],[106.4689,10.059],[106.3599,10.2207],[106.292,10.2617],[106.3494,10.2148],[106.3685,10.1559],[106.4617,10.0357],[106.6963,9.8966],[106.6687,9.8428],[106.6764,9.8668],[106.6626,9.8837],[106.6379,9.826],[106.5868,9.8229],[106.5044,9.9055],[106.395,9.9744],[106.1449,10.2286],[106.1133,10.2343],[106.1579,10.1954],[106.1934,10.1203],[106.4758,9.8618],[106.5379,9.7512],[106.575,9.7391],[106.5755,9.6486],[106.5437,9.585],[106.4849,9.5471],[106.385,9.5483],[106.2503,9.6312],[106.0647,9.8043],[105.9329,9.9554],[105.819,10.008],[106.0735,9.748],[106.0929,9.6929],[106.197,9.5412],[106.2107,9.47],[106.1692,9.4182],[106.1946,9.399],[106.1934,9.3693],[105.5387,9.1293],[105.4082,9.0006],[105.3151,8.8122],[105.2588,8.7605],[105.184,8.7409],[105.1015,8.6343],[104.8562,8.5656],[104.7229,8.6027],[104.7202,8.6138],[104.7593,8.6156],[104.8351,8.6605],[104.8195,8.6909],[104.8328,8.6989],[104.9116,8.6852],[104.9631,8.7194],[104.9075,8.6996],[104.8533,8.7126],[104.8528,8.7292],[104.929,8.7473],[104.9216,8.8093],[104.8167,8.7713],[104.7746,8.8179],[104.8117,8.937],[104.811,9.1326],[104.8566,9.738],[104.8928,9.8511],[104.97,9.8537],[105.0549,9.9334],[105.0867,9.9359],[105.1133,9.8571],[105.1071,9.9527],[105.0877,9.9967],[105.0033,10.0921],[104.9639,10.1059],[104.9011,10.0973],[104.772,10.2266],[104.7074,10.2223],[104.6509,10.1445],[104.613,10.1445],[104.5889,10.2609],[104.5515,10.2959],[104.5374,10.2822],[104.499,10.3706],[104.5251,10.3898],[104.5249,10.4194],[104.4696,10.3785],[104.4536,10.3798],[104.4513,10.4197],[104.4943,10.4277],[104.5668,10.5281],[104.7738,10.5153],[104.8544,10.5313],[104.9314,10.6307],[105.0667,10.7139],[105.0114,10.8838],[105.0779,10.9469],[105.0975,10.9143],[105.2533,10.8835],[105.3179,10.8388],[105.4105,10.963],[105.4739,10.9409],[105.7529,11.0156],[105.8214,10.9197],[105.8475,10.8554],[105.8787,10.8281],[105.9087,10.8384],[105.9313,10.8964],[106.0179,10.8198],[106.1551,10.7848],[106.1773,10.7669],[106.1218,10.9252],[106.1314,10.9693],[106.1879,10.9763],[106.1603,11.0535],[106.1135,11.0869],[106.0866,11.0563],[105.9888,11.177],[105.8999,11.2186],[105.8867,11.2679],[105.8444,11.2899],[105.8738,11.4282],[105.8578,11.5356],[105.8033,11.5662],[105.7934,11.6073],[105.8409,11.6582],[105.9341,11.6429],[106.0154,11.7705],[106.2236,11.725],[106.2741,11.6768],[106.3543,11.6901],[106.4258,11.6621],[106.435,11.6773],[106.3978,11.7621],[106.4388,11.8637],[106.394,11.9698],[106.4175,11.9759],[106.4737,11.9521],[106.5045,11.9734],[106.6386,11.9611],[106.6306,11.9762],[106.7,11.9704],[106.7,10.5076],[106.6558,10.5219]]],[[[106.292,9.5864],[106.2844,9.5437],[106.2442,9.535],[106.2492,9.5601],[106.197,9.6101],[106.2266,9.5652],[106.1966,9.5717],[106.126,9.6724],[106.0934,9.7609],[106.2234,9.6085],[106.292,9.5864]]],[[[106.5596,10.2754],[106.5117,10.2959],[106.5879,10.2769],[106.7,10.2756],[106.7,10.2475],[106.5596,10.2754]]],[[[106.6558,8.6989],[106.6023,8.6947],[106.603,8.6557],[106.5833,8.6511],[106.5596,8.6818],[106.571,8.706],[106.6306,8.7546],[106.666,8.7632],[106.6626,8.7398],[106.6392,8.7375],[106.6558,8.6989]]],[[[106.5357,9.8292],[106.4224,9.939],[106.486,9.9027],[106.531,9.858],[106.5357,9.8292]]],[[[104.0855,10.2481],[104.0335,10.096],[104.0513,10.0693],[104.0513,10.008],[104.0106,10.0305],[103.957,10.2338],[103.9372,10.2661],[103.8574,10.3209],[103.846,10.3713],[103.9338,10.3664],[103.9834,10.4422],[104.0047,10.451],[104.0855,10.3539],[104.0855,10.2481]]]]}},{"type":"Feature","properties":{"code":"KHM"},"geometry":{"type":"MultiPolygon","coordinates":[[[[106.5045,11.9734],[106.4737,11.9521],[106.4421,11.9749],[106.394,11.9698],[106.4388,11.8637],[106.3978,11.7621],[106.435,11.6773],[106.4258,11.6621],[106.3543,11.6901],[106.2741,11.6768],[106.2236,11.725],[106.0154,11.7705],[105.9341,11.6429],[105.8409,11.6582],[105.7934,11.6073],[105.8033,11.5662],[105.8578,11.5356],[105.8738,11.4282],[105.8444,11.2899],[105.8867,11.2679],[105.8999,11.2186],[105.9888,11.177],[106.0866,11.0563],[106.1135,11.0869],[106.1603,11.0535],[106.1879,10.9763],[106.1314,10.9693],[106.1218,10.9252],[106.1773,10.7669],[106.1551,10.7848],[106.0179,10.8198],[105.9313,10.8964],[105.9087,10.8384],[105.8787,10.8281],[105.8475,10.8554],[105.7697,10.9965],[105.7261,11.0184],[105.6322,10.974],[105.4739,10.9409],[105.4105,10.963],[105.3179,10.8388],[105.2533,10.8835],[105.0975,10.9143],[105.0779,10.9469],[105.0114,10.8838],[105.0662,10.7464],[105.0667,10.7139],[105.0425,10.6908],[104.9443,10.6416],[104.8544,10.5313],[104.8188,10.5172],[104.5668,10.5281],[104.4837,10.418],[104.4513,10.4197],[104.3631,10.4877],[104.2977,10.4809],[104.2863,10.5405],[104.2498,10.5703],[104.2227,10.5703],[104.207,10.55],[104.089,10.5546],[103.9456,10.5881],[103.8943,10.6584],[103.8734,10.6601],[103.8664,10.6994],[103.8628,10.6038],[103.8206,10.544],[103.7671,10.5355],[103.7019,10.5628],[103.7471,10.509],[103.6374,10.4945],[103.6063,10.556],[103.5701,10.5551],[103.5438,10.5962],[103.502,10.6171],[103.5674,10.7265],[103.6887,10.741],[103.6722,10.7579],[103.6781,10.8012],[103.7244,10.856],[103.7224,10.8948],[103.6595,11.0298],[103.6746,11.0637],[103.604,11.0906],[103.5619,11.1522],[103.5027,11.1661],[103.4964,11.1388],[103.4685,11.1518],[103.4745,11.1337],[103.448,11.0904],[103.4683,11.0993],[103.4702,11.0891],[103.4308,11.0065],[103.4146,10.9464],[103.4212,10.9091],[103.4021,10.8843],[103.3523,10.8719],[103.3441,10.8955],[103.2774,10.9327],[103.219,10.8925],[103.2227,10.8781],[103.1812,10.8644],[103.1267,10.8813],[103.1401,10.8986],[103.0956,10.934],[103.1128,10.9709],[103.0985,11.0805],[103.1177,11.1491],[103.0886,11.2177],[103.0576,11.2208],[103.1056,11.2991],[103.134,11.3161],[103.1532,11.3027],[103.1401,11.3579],[103.1128,11.3437],[103.1003,11.356],[103.0645,11.4473],[103.085,11.433],[103.1299,11.4604],[103.1743,11.4262],[103.1333,11.4945],[103.1401,11.5087],[103.1128,11.4678],[103.0645,11.5036],[103.0576,11.5913],[103.0371,11.6049],[103.0303,11.5429],[102.9751,11.5292],[102.9546,11.5571],[102.9751,11.5702],[103.0029,11.5497],[102.9824,11.5838],[102.9938,11.6357],[103.0433,11.6248],[103.0135,11.6394],[103.0168,11.6596],[102.9955,11.6527],[102.9893,11.6732],[102.9688,11.6385],[102.9863,11.7029],[103.0217,11.7205],[103.0667,11.7082],[103.085,11.7279],[103.056,11.7161],[103.0234,11.7347],[102.9824,11.7142],[102.9561,11.7669],[102.8931,11.8303],[102.9688,11.7142],[102.9546,11.5702],[102.9136,11.6459],[102.9288,11.6687],[102.9138,11.7655],[102.843,11.866],[102.7711,12.0374],[102.7,12.1387],[102.6922,12.1785],[102.7151,12.3422],[102.7651,12.4163],[102.7621,12.4361],[102.5885,12.6098],[102.5018,12.6498],[102.4793,12.6771],[102.478,12.7196],[102.5066,12.7875],[102.4648,12.9275],[102.4789,12.9536],[102.4672,12.9695],[102.4902,12.9961],[102.3821,13.1366],[102.3282,13.2752],[102.3301,13.4964],[102.3134,13.541],[102.3322,13.5646],[102.5132,13.5672],[102.5977,13.6055],[102.5411,13.6486],[102.5424,13.6697],[102.6986,13.7618],[102.7728,13.9361],[102.8698,14.0206],[102.8762,14.0713],[102.9341,14.201],[103.0049,14.2288],[103.118,14.3132],[103.2737,14.3511],[103.3629,14.3535],[103.4225,14.3848],[103.4497,14.3716],[103.5334,14.4191],[103.5961,14.4043],[103.6472,14.444],[103.6715,14.4296],[103.6749,14.3865],[103.824,14.368],[103.8852,14.3404],[103.9198,14.3646],[103.974,14.3673],[104.0014,14.3451],[104.1102,14.3804],[104.1409,14.366],[104.177,14.4042],[104.2013,14.378],[104.2475,14.4011],[104.4526,14.3569],[104.4926,14.374],[104.5428,14.3604],[104.6104,14.419],[104.6684,14.4096],[104.6929,14.434],[104.7129,14.4068],[104.7883,14.4382],[104.8314,14.4118],[104.9738,14.3806],[104.9759,14.3011],[105.0077,14.2438],[105.0473,14.2141],[105.1014,14.2305],[105.155,14.3305],[105.1843,14.3457],[105.1974,14.2703],[105.2569,14.1824],[105.3378,14.11],[105.4222,14.1079],[105.5332,14.1643],[105.5614,14.1382],[105.5946,14.1363],[105.6173,14.103],[105.6431,14.1135],[105.744,14.0869],[105.7871,14.0102],[105.8997,13.9226],[106.0692,13.9165],[106.0838,13.934],[106.082,13.981],[106.1495,14.0536],[106.0762,14.1745],[106.0125,14.2258],[106.0045,14.29],[105.9692,14.332],[105.974,14.3658],[106.0382,14.3477],[106.0554,14.3484],[106.0635,14.3729],[106.1732,14.3697],[106.2039,14.3999],[106.2301,14.4905],[106.3065,14.4455],[106.4192,14.4665],[106.4452,14.4995],[106.4365,14.5238],[106.4848,14.5238],[106.4722,14.5641],[106.5125,14.5904],[106.5438,14.5121],[106.5857,14.496],[106.6344,14.4509],[106.7,14.4314],[106.7,11.9704],[106.5045,11.9734]]],[[[103.7947,10.4536],[103.752,10.4646],[103.7434,10.4809],[103.7639,10.4945],[103.7604,10.5138],[103.7986,10.5054],[103.7947,10.4536]]],[[[103.3182,10.7068],[103.2774,10.6727],[103.2608,10.7092],[103.2136,10.7333],[103.1985,10.7624],[103.2451,10.778],[103.3182,10.7068]]],[[[103.0433,11.2734],[103.0076,11.2551],[102.9885,11.3009],[102.9893,11.4262],[102.9955,11.4125],[103.0242,11.4172],[103.0433,11.2734]]],[[[103.0508,11.4604],[103.0204,11.4269],[103.0234,11.4604],[102.9959,11.5137],[103.0091,11.5292],[103.0508,11.4604]]],[[[103.3235,10.5452],[103.2922,10.5832],[103.2891,10.6127],[103.3195,10.6173],[103.3125,10.5791],[103.3359,10.5834],[103.3235,10.5452]]]]}},{"type":"Feature","properties":{"code":"LAO"},"geometry":{"type":"Polygon","coordinates":[[[102.8497,21.4254],[102.918,21.4501],[102.8838,21.3884],[102.8752,21.3053],[102.8013,21.2548],[102.8502,21.2517],[102.8879,21.2269],[102.883,21.1764],[102.9256,21.1417],[102.9468,21.0759],[103.0145,21.0405],[103.0867,20.902],[103.1364,20.8505],[103.2069,20.8246],[103.2634,20.8264],[103.3583,20.7877],[103.4404,20.8157],[103.4894,20.7525],[103.5779,20.7329],[103.6763,20.6565],[103.7143,20.6717],[103.7072,20.7218],[103.7546,20.7429],[103.7567,20.796],[103.7853,20.846],[104.0106,20.9081],[104.0567,20.9588],[104.0923,20.9612],[104.1939,20.9299],[104.2211,20.892],[104.2789,20.8915],[104.3891,20.771],[104.4526,20.7636],[104.4923,20.7021],[104.6152,20.6465],[104.5426,20.5357],[104.4958,20.5119],[104.445,20.5346],[104.4238,20.4954],[104.3598,20.4397],[104.4324,20.4111],[104.5755,20.4141],[104.6809,20.341],[104.6886,20.301],[104.6574,20.2796],[104.6571,20.2127],[104.6909,20.1965],[104.8192,20.221],[104.908,20.1753],[104.9049,20.1346],[104.9644,20.0761],[104.944,20.0671],[104.9495,19.9955],[104.8738,19.9827],[104.8579,19.9552],[104.7807,19.9081],[104.7555,19.867],[104.8166,19.8481],[104.805,19.7909],[104.676,19.7247],[104.6143,19.6074],[104.5792,19.618],[104.5058,19.6028],[104.3801,19.6853],[104.3419,19.683],[104.2953,19.6549],[104.277,19.6839],[104.229,19.706],[104.1363,19.6875],[104.0887,19.6519],[104.001,19.6807],[104.0174,19.6004],[104.0716,19.5591],[104.09,19.4837],[104.0605,19.4713],[104.0383,19.4129],[103.9528,19.391],[103.8484,19.2999],[103.8927,19.2939],[103.9109,19.263],[103.9728,19.2253],[104.0367,19.2302],[104.1477,19.1829],[104.1981,19.1469],[104.2106,19.1007],[104.2599,19.1041],[104.3552,19.0479],[104.4132,18.9831],[104.4977,18.968],[104.5561,18.8965],[104.6462,18.8325],[104.6856,18.8248],[104.7103,18.7961],[104.8016,18.7751],[104.8729,18.778],[104.8994,18.7706],[104.9197,18.7356],[104.9902,18.733],[105.0646,18.6966],[105.1127,18.6983],[105.1695,18.6149],[105.1621,18.5982],[105.1281,18.5989],[105.1136,18.5808],[105.08,18.4544],[105.0908,18.4265],[105.1629,18.366],[105.1662,18.3068],[105.2359,18.2495],[105.2925,18.2527],[105.2951,18.1956],[105.3655,18.151],[105.41,18.2019],[105.4667,18.181],[105.476,18.1273],[105.5465,18.059],[105.5593,18.0153],[105.606,17.9641],[105.5942,17.8881],[105.6052,17.8543],[105.644,17.8201],[105.7231,17.6735],[105.8199,17.6216],[106.0193,17.3945],[106.1854,17.2574],[106.2218,17.2449],[106.26,17.2892],[106.2846,17.2848],[106.3105,17.2271],[106.3064,17.1765],[106.3949,17.068],[106.3871,17.0472],[106.4114,16.9957],[106.4968,16.9639],[106.5245,16.9892],[106.5334,16.9727],[106.5407,16.6591],[106.5724,16.6136],[106.6402,16.5866],[106.6552,16.4708],[106.7,16.429],[106.7,14.4314],[106.6344,14.4509],[106.5857,14.496],[106.5438,14.5121],[106.5125,14.5904],[106.4722,14.5641],[106.4848,14.5238],[106.4365,14.5238],[106.4452,14.4995],[106.4192,14.4665],[106.3065,14.4455],[106.2301,14.4905],[106.2039,14.3999],[106.1732,14.3697],[106.0635,14.3729],[106.0554,14.3484],[106.0382,14.3477],[105.974,14.3658],[105.9692,14.332],[106.0045,14.29],[106.0125,14.2258],[106.0762,14.1745],[106.1495,14.0536],[106.082,13.981],[106.0838,13.934],[106.0692,13.9165],[105.8997,13.9226],[105.7871,14.0102],[105.744,14.0869],[105.6431,14.1135],[105.6173,14.103],[105.5946,14.1363],[105.5614,14.1382],[105.5332,14.1643],[105.4222,14.1079],[105.3378,14.11],[105.2569,14.1824],[105.1974,14.2703],[105.1843,14.3457],[105.2686,14.3644],[105.2947,14.3991],[105.3351,14.3857],[105.3677,14.4145],[105.416,14.4282],[105.5075,14.564],[105.4958,14.6599],[105.5051,14.7364],[105.4891,14.7863],[105.5016,14.8273],[105.5244,14.8372],[105.5178,14.8777],[105.543,14.8801],[105.5506,14.9023],[105.5342,14.934],[105.5931,14.9908],[105.5535,15.0053],[105.5209,15.0661],[105.4519,15.0948],[105.4438,15.1338],[105.4631,15.1894],[105.564,15.2725],[105.558,15.3251],[105.499,15.3247],[105.4775,15.3528],[105.4863,15.3749],[105.6043,15.4392],[105.651,15.6346],[105.6409,15.682],[105.5685,15.7494],[105.448,15.7649],[105.412,15.7998],[105.3606,15.9194],[105.3625,15.9548],[105.4221,16.0099],[105.2372,16.0508],[105.0581,16.1212],[105.0326,16.1653],[105.0155,16.2767],[104.908,16.3534],[104.8555,16.4541],[104.7652,16.5113],[104.7484,16.5719],[104.779,16.7049],[104.7404,17.0026],[104.8099,17.1717],[104.8164,17.3728],[104.7889,17.429],[104.7568,17.4499],[104.7026,17.5273],[104.4812,17.6404],[104.4223,17.6998],[104.3526,17.8193],[104.2783,17.8646],[104.2109,18.0086],[104.1224,18.0953],[104.0684,18.2154],[104.0,18.3184],[103.9293,18.3276],[103.8739,18.2832],[103.8014,18.3383],[103.6956,18.3532],[103.5488,18.4154],[103.3968,18.4414],[103.3069,18.4257],[103.2608,18.4002],[103.234,18.3558],[103.2954,18.2878],[103.1682,18.2498],[103.1386,18.1667],[103.0713,18.1256],[103.0731,18.0355],[103.0379,17.9907],[103.0205,17.9842],[102.9549,18.0121],[102.8527,17.972],[102.7374,17.8904],[102.673,17.8654],[102.6829,17.8101],[102.5953,17.8408],[102.6123,17.9153],[102.5996,17.9552],[102.4122,17.9942],[102.3664,18.0388],[102.3067,18.0515],[102.2566,18.094],[102.1916,18.1521],[102.1719,18.2003],[102.0785,18.2138],[101.9043,18.0371],[101.8838,18.0308],[101.7904,18.0736],[101.7658,18.0403],[101.7291,17.9122],[101.6362,17.8948],[101.6004,17.8544],[101.5776,17.8681],[101.5705,17.8289],[101.534,17.8096],[101.5563,17.7921],[101.5027,17.7654],[101.4683,17.7204],[101.4535,17.751],[101.388,17.7293],[101.3819,17.7207],[101.404,17.7156],[101.3838,17.6849],[101.247,17.5922],[101.2022,17.5232],[101.1667,17.5106],[101.1323,17.4617],[101.0493,17.4957],[100.9815,17.5476],[100.886,17.5738],[100.8857,17.5959],[100.9538,17.6998],[100.9586,17.7641],[100.9755,17.7798],[100.9652,17.7976],[101.0003,17.8305],[101.0008,17.8848],[101.0662,17.934],[101.1123,18.0113],[101.1652,18.0534],[101.1416,18.124],[101.1628,18.1953],[101.1284,18.2457],[101.1301,18.2912],[101.1554,18.3229],[101.0823,18.3642],[101.0303,18.4278],[101.0779,18.5104],[101.1554,18.5567],[101.1609,18.5998],[101.2347,18.6584],[101.2348,18.6895],[101.2058,18.7301],[101.2286,18.7956],[101.2249,18.8748],[101.2839,18.9815],[101.3264,19.0205],[101.3179,19.0501],[101.2357,19.1281],[101.2113,19.3264],[101.1785,19.3466],[101.1724,19.3764],[101.1929,19.4528],[101.2382,19.4723],[101.2517,19.4944],[101.2549,19.5472],[101.2382,19.5782],[101.208,19.5896],[101.1247,19.5651],[101.0025,19.6106],[100.8798,19.6136],[100.753,19.4824],[100.6333,19.5422],[100.607,19.5409],[100.5667,19.4956],[100.5493,19.4945],[100.462,19.5371],[100.4556,19.5847],[100.4189,19.6344],[100.4072,19.6999],[100.3792,19.7457],[100.4314,19.8383],[100.484,19.8807],[100.5434,20.0666],[100.5465,20.1679],[100.5292,20.1497],[100.461,20.1907],[100.3644,20.369],[100.3065,20.3997],[100.2404,20.3728],[100.2092,20.313],[100.1671,20.2926],[100.1677,20.2536],[100.1525,20.2392],[100.103,20.2636],[100.0998,20.3622],[100.1209,20.3888],[100.1802,20.6382],[100.2216,20.7096],[100.2902,20.775],[100.3297,20.786],[100.3648,20.8282],[100.5367,20.8077],[100.6521,20.8766],[100.6231,20.8885],[100.5342,20.8739],[100.5157,20.8865],[100.5178,20.9063],[100.5292,20.9684],[100.5573,20.992],[100.5435,21.0274],[100.6255,21.0541],[100.6894,21.1593],[100.7254,21.3117],[100.792,21.2974],[100.8513,21.3148],[101.1257,21.5],[101.1863,21.5],[101.1714,21.4034],[101.2331,21.3717],[101.2074,21.3148],[101.2204,21.2963],[101.209,21.2455],[101.2597,21.1795],[101.2927,21.1761],[101.3815,21.2225],[101.5176,21.2426],[101.584,21.2244],[101.5818,21.1757],[101.6551,21.1892],[101.6883,21.1458],[101.7179,21.1345],[101.7667,21.1506],[101.7601,21.196],[101.8052,21.2045],[101.8237,21.2345],[101.8012,21.2671],[101.7365,21.2923],[101.7151,21.3211],[101.7297,21.4742],[101.7452,21.5],[102.895,21.4953],[102.8497,21.4254]]]}},{"type":"Feature","properties":{"code":"THA"},"geometry":{"type":"MultiPolygon","coordinates":[[[[102.8933,11.7697],[102.777,11.9025],[102.7669,12.0118],[102.6318,12.152],[102.6536,12.1592],[102.6045,12.2039],[102.6057,12.2213],[102.5619,12.2021],[102.5573,12.1837],[102.5824,12.0493],[102.5539,12.0568],[102.5322,12.1136],[102.4736,12.149],[102.3504,12.1957],[102.3245,12.1803],[102.2959,12.19],[102.2632,12.2895],[102.29,12.2829],[102.3363,12.3074],[102.3599,12.3471],[102.3521,12.3673],[102.3245,12.3653],[102.3451,12.3448],[102.3307,12.3278],[102.2917,12.3181],[102.2861,12.3857],[102.304,12.4274],[102.27,12.3926],[102.27,12.4404],[102.2424,12.4263],[102.2057,12.4358],[102.2085,12.3994],[102.2359,12.4137],[102.2427,12.3721],[102.2734,12.3262],[102.2648,12.3062],[102.2283,12.3237],[102.1244,12.4105],[102.0872,12.4647],[102.072,12.4885],[102.0781,12.5093],[102.0859,12.4984],[102.0986,12.4956],[102.0855,12.5043],[102.1123,12.5373],[102.0929,12.5234],[102.0781,12.5297],[102.0986,12.5434],[102.0479,12.5423],[102.0645,12.5707],[102.0093,12.5645],[102.0432,12.5235],[102.0645,12.5229],[102.057,12.4683],[102.009,12.5341],[101.9608,12.5373],[101.9499,12.6064],[101.9343,12.5837],[101.9478,12.5297],[101.8996,12.5697],[101.8926,12.5837],[101.9131,12.5776],[101.9094,12.5942],[101.8776,12.6055],[101.8303,12.6728],[101.7661,12.7059],[101.6864,12.7021],[101.6598,12.6601],[101.5811,12.6527],[101.5711,12.6321],[101.4651,12.6323],[101.4181,12.5956],[101.3235,12.6422],[101.0877,12.6806],[100.9886,12.6494],[100.9745,12.598],[100.9261,12.6191],[100.9408,12.6364],[100.9177,12.6626],[100.8579,12.6527],[100.8714,12.6738],[100.8511,12.6738],[100.8646,12.7011],[100.8374,12.7079],[100.8679,12.7711],[100.8921,12.7625],[100.9199,12.8109],[100.8646,12.9196],[100.8921,12.9481],[100.8996,12.9822],[100.9336,13.0028],[100.9058,13.0744],[100.8783,13.0983],[100.9452,13.2009],[100.9124,13.2939],[100.9324,13.3381],[100.9813,13.359],[100.9851,13.4177],[100.9709,13.4372],[100.9958,13.4962],[100.9634,13.4714],[100.8889,13.4682],[100.6799,13.5092],[100.5921,13.5545],[100.5978,13.6123],[100.5759,13.5196],[100.3372,13.4819],[100.2751,13.5167],[100.2372,13.4774],[100.0531,13.413],[100.0217,13.3666],[100.0013,13.372],[100.0156,13.3659],[100.0062,13.3328],[99.9627,13.3099],[99.9671,13.259],[100.074,13.1528],[100.1043,13.0573],[100.053,12.9661],[100.0239,12.8471],[99.9876,12.7905],[99.9605,12.6679],[99.9808,12.4547],[100.0122,12.3687],[99.9828,12.2705],[100.0093,12.2411],[100.02,12.1927],[99.9553,12.0725],[99.8312,11.9247],[99.8233,11.8786],[99.8369,11.8435],[99.8098,11.8246],[99.8171,11.7414],[99.7804,11.7373],[99.7518,11.7099],[99.6419,11.5233],[99.6257,11.4405],[99.5693,11.334],[99.5663,11.2763],[99.5862,11.1951],[99.5693,11.1791],[99.562,11.1989],[99.5286,11.1868],[99.4963,11.1329],[99.5153,11.0392],[99.4942,10.9675],[99.5116,10.8664],[99.4942,10.8781],[99.4432,10.8703],[99.4351,10.8018],[99.375,10.712],[99.3744,10.6814],[99.3132,10.6474],[99.2883,10.5629],[99.2404,10.5219],[99.2683,10.5082],[99.2404,10.457],[99.2887,10.412],[99.285,10.3645],[99.2341,10.3437],[99.2,10.3785],[99.1516,10.3574],[99.169,10.2877],[99.2246,10.2324],[99.2546,10.2344],[99.2417,10.2145],[99.2013,10.2106],[99.1516,10.1035],[99.1789,10.0253],[99.1585,9.9905],[99.1721,9.8502],[99.1516,9.8292],[99.1448,9.7882],[99.1729,9.6652],[99.2121,9.5977],[99.2232,9.5426],[99.3236,9.3915],[99.2908,9.3901],[99.2355,9.3363],[99.2341,9.2783],[99.2551,9.2325],[99.3508,9.2192],[99.3782,9.1929],[99.4748,9.201],[99.5358,9.2817],[99.5935,9.2748],[99.6895,9.3159],[99.7816,9.3084],[99.8034,9.3227],[99.8535,9.2947],[99.8596,9.2578],[99.8778,9.2265],[99.886,9.2333],[99.8865,9.1579],[99.9163,9.102],[99.9331,9.0006],[99.9194,8.98],[99.9263,8.8633],[99.9671,8.6057],[100.0408,8.5456],[100.0985,8.4265],[100.1442,8.3888],[100.1863,8.3972],[100.1648,8.5014],[100.1311,8.5146],[100.1506,8.5229],[100.1808,8.5012],[100.2205,8.4487],[100.2715,8.3171],[100.4402,7.477],[100.5006,7.334],[100.5746,7.2092],[100.574,7.195],[100.5481,7.1971],[100.4724,7.2589],[100.4255,7.2676],[100.439,7.2941],[100.4223,7.37],[100.4081,7.3787],[100.406,7.5277],[100.3895,7.5662],[100.3589,7.5786],[100.3256,7.5745],[100.2896,7.5182],[100.2726,7.5311],[100.2756,7.577],[100.3235,7.6164],[100.3206,7.708],[100.2887,7.7883],[100.2106,7.7809],[100.1448,7.7194],[100.1792,7.5312],[100.2251,7.4795],[100.2788,7.3622],[100.303,7.3427],[100.3701,7.3327],[100.3849,7.2663],[100.4269,7.2453],[100.3923,7.2226],[100.4244,7.1712],[100.4948,7.1366],[100.5559,7.1447],[100.5886,7.1796],[100.5854,7.2244],[100.7651,6.9831],[100.8273,6.9517],[100.8499,6.9621],[100.9976,6.8567],[101.1914,6.8619],[101.2443,6.902],[101.3513,6.8759],[101.3283,6.9179],[101.2625,6.9448],[101.2917,6.9546],[101.5574,6.8418],[101.7717,6.5007],[102.0731,6.2575],[102.06,6.0948],[101.9347,5.9817],[101.9129,5.8593],[101.8005,5.7399],[101.7629,5.7495],[101.7268,5.7865],[101.6867,5.7612],[101.6659,5.7656],[101.6308,5.8284],[101.6341,5.8556],[101.5579,5.9113],[101.249,5.787],[101.2123,5.6815],[101.1222,5.6299],[101.0598,5.7096],[100.9986,5.7295],[100.9653,5.7924],[101.0153,5.8983],[101.0711,5.9198],[101.0788,5.9382],[101.0943,6.0858],[101.0525,6.1346],[101.0534,6.1576],[101.0892,6.1888],[101.0817,6.2465],[101.0231,6.241],[100.9743,6.2726],[100.9101,6.2358],[100.8551,6.2479],[100.833,6.2367],[100.8056,6.4148],[100.7733,6.4473],[100.7339,6.4564],[100.73,6.4932],[100.6307,6.4448],[100.4672,6.5132],[100.3874,6.5221],[100.3292,6.5578],[100.2808,6.6889],[100.2633,6.7],[100.2124,6.6892],[100.1876,6.708],[100.1668,6.6951],[100.1561,6.6206],[100.1672,6.5661],[100.1457,6.5395],[100.1273,6.4423],[100.1082,6.4796],[100.0901,6.4848],[100.1035,6.5332],[100.0806,6.5368],[100.0633,6.5066],[100.0013,6.5675],[99.9912,6.5978],[99.9641,6.5937],[99.974,6.6227],[99.9609,6.6605],[99.9373,6.6647],[99.8675,6.7626],[99.8517,6.7764],[99.8249,6.7696],[99.7972,6.8217],[99.6858,6.8773],[99.6904,6.9355],[99.7139,6.9422],[99.6809,6.9736],[99.6792,7.0268],[99.7481,7.126],[99.7406,7.1371],[99.6929,7.1161],[99.6776,7.1233],[99.6724,7.1707],[99.6141,7.1367],[99.5579,7.1975],[99.5454,7.2663],[99.5852,7.3067],[99.6035,7.3762],[99.5496,7.3018],[99.5247,7.3113],[99.5254,7.37],[99.5081,7.385],[99.491,7.351],[99.4883,7.2857],[99.4707,7.28],[99.3782,7.321],[99.3366,7.3836],[99.3474,7.4235],[99.3298,7.5034],[99.2956,7.5071],[99.3088,7.5283],[99.2927,7.6207],[99.2498,7.6278],[99.2557,7.6574],[99.1531,7.7307],[99.1305,7.7672],[99.1122,7.7055],[99.0915,7.6918],[99.056,7.6989],[99.0332,7.7228],[99.0144,7.815],[99.0623,7.8594],[99.0696,7.9249],[99.0281,7.9038],[99.0003,7.9426],[98.9678,7.9562],[98.9605,8.0068],[98.918,8.0513],[98.8436,8.0029],[98.8003,8.0524],[98.7703,8.0237],[98.7474,8.0683],[98.7442,8.2149],[98.7271,8.2539],[98.7066,8.2259],[98.7031,8.2985],[98.6963,8.3085],[98.624,8.2812],[98.6262,8.3461],[98.6554,8.3796],[98.6035,8.3972],[98.5989,8.3749],[98.5261,8.3363],[98.4937,8.3432],[98.4867,8.3249],[98.4663,8.3358],[98.4663,8.3227],[98.4282,8.317],[98.4222,8.3063],[98.4531,8.294],[98.4629,8.2161],[98.425,8.1484],[98.4055,8.1645],[98.3913,8.1365],[98.3569,8.185],[98.2869,8.2199],[98.1995,8.5344],[98.2097,8.5815],[98.2473,8.5146],[98.2531,8.5347],[98.22,8.5692],[98.2405,8.6511],[98.22,8.7262],[98.2507,8.76],[98.2616,8.8507],[98.3249,8.9752],[98.364,8.9739],[98.3581,8.996],[98.3913,9.0353],[98.3327,9.0261],[98.3298,9.0521],[98.382,9.0719],[98.3284,9.1644],[98.3223,9.2094],[98.3397,9.1998],[98.3708,9.2265],[98.3519,9.2514],[98.4572,9.5485],[98.4868,9.5281],[98.5311,9.5661],[98.4634,9.6044],[98.5142,9.6547],[98.4937,9.6857],[98.5132,9.6949],[98.4937,9.7137],[98.544,9.7065],[98.5658,9.7426],[98.521,9.7546],[98.508,9.7404],[98.508,9.7746],[98.5554,9.798],[98.583,9.8428],[98.549,9.8093],[98.5127,9.8369],[98.549,9.8837],[98.5762,9.8776],[98.5899,9.9055],[98.5716,9.9155],[98.592,9.9427],[98.6309,9.9527],[98.5996,9.9739],[98.6035,9.9936],[98.6623,10.0853],[98.7205,10.2279],[98.7904,10.5003],[98.7773,10.5832],[98.7479,10.6231],[98.7568,10.6661],[98.8301,10.7636],[98.8682,10.7699],[98.8921,10.8085],[98.934,10.8077],[98.9819,10.8324],[98.9802,10.918],[99.0015,10.9576],[99.0551,10.9453],[99.0769,10.9965],[99.213,11.1083],[99.2433,11.1977],[99.3643,11.3767],[99.387,11.4515],[99.4282,11.4969],[99.4498,11.6138],[99.5426,11.6405],[99.6069,11.7257],[99.63,11.8158],[99.5614,11.8729],[99.574,11.9763],[99.5184,12.0259],[99.5417,12.1407],[99.4523,12.1294],[99.4738,12.1873],[99.387,12.4659],[99.4042,12.5081],[99.4033,12.5759],[99.2769,12.6656],[99.2667,12.7028],[99.2245,12.7175],[99.2107,12.7923],[99.1753,12.8334],[99.1532,12.9136],[99.1648,12.9755],[99.0932,13.0383],[99.1021,13.1713],[99.1141,13.1881],[99.1728,13.1995],[99.1902,13.2295],[99.1728,13.3009],[99.1869,13.3291],[99.1879,13.4271],[99.152,13.582],[99.1525,13.7149],[99.1012,13.7788],[99.09,13.8701],[99.0071,13.9496],[98.953,14.028],[98.9353,14.0854],[98.8723,14.1125],[98.7537,14.2001],[98.707,14.27],[98.6704,14.2679],[98.6015,14.3136],[98.5477,14.3777],[98.4182,14.6076],[98.2975,14.7212],[98.2433,14.8051],[98.2216,14.9213],[98.1911,14.9881],[98.199,15.0514],[98.1604,15.1064],[98.1907,15.1792],[98.1772,15.2206],[98.2329,15.2268],[98.283,15.29],[98.3852,15.2563],[98.3947,15.2801],[98.3775,15.2965],[98.3991,15.3218],[98.4034,15.3601],[98.4745,15.3835],[98.5155,15.3635],[98.5336,15.326],[98.5599,15.3553],[98.5671,15.4525],[98.5403,15.712],[98.5744,15.836],[98.5686,15.9202],[98.5838,15.977],[98.547,16.0475],[98.6191,16.051],[98.6587,16.1163],[98.6796,16.1261],[98.7584,16.1192],[98.783,16.1024],[98.8072,16.1105],[98.8354,16.1445],[98.8431,16.2087],[98.8837,16.2588],[98.9025,16.3816],[98.8434,16.4384],[98.8396,16.4724],[98.8187,16.4556],[98.7886,16.3746],[98.6824,16.2735],[98.6633,16.2867],[98.6295,16.4027],[98.6316,16.4631],[98.5642,16.552],[98.5616,16.6017],[98.5123,16.6433],[98.4863,16.701],[98.4567,16.7232],[98.4745,16.7767],[98.5175,16.803],[98.49,16.8432],[98.5006,16.8622],[98.5246,16.8504],[98.5095,16.8927],[98.4845,16.9059],[98.4745,16.9504],[98.4179,17.029],[98.2997,17.0647],[98.2862,17.0874],[98.2944,17.1076],[98.2683,17.1077],[98.279,17.1366],[98.0926,17.3122],[98.0887,17.3728],[98.0355,17.405],[97.9828,17.5054],[97.9338,17.5318],[97.7593,17.6915],[97.7496,17.7398],[97.6761,17.8303],[97.6991,17.8333],[97.6855,17.8807],[97.7201,17.9432],[97.7541,17.969],[97.7201,18.0531],[97.6942,18.0615],[97.6843,18.1461],[97.6179,18.2417],[97.6433,18.273],[97.6376,18.3063],[97.5738,18.3331],[97.5283,18.2653],[97.4865,18.2921],[97.4526,18.3336],[97.4431,18.4033],[97.3514,18.5512],[97.3889,18.5422],[97.4275,18.4895],[97.5095,18.4913],[97.6179,18.5532],[97.7457,18.5711],[97.7597,18.6228],[97.7234,18.852],[97.6578,18.9257],[97.7033,18.9644],[97.7278,19.0371],[97.8108,19.1122],[97.8126,19.2085],[97.7641,19.2664],[97.7983,19.2814],[97.8062,19.3011],[97.7671,19.3975],[97.8421,19.4794],[97.8486,19.5676],[97.8858,19.5728],[98.0083,19.6391],[98.0046,19.7239],[98.0245,19.803],[98.0456,19.8076],[98.0729,19.7773],[98.1114,19.7771],[98.2133,19.7178],[98.2192,19.677],[98.2375,19.6647],[98.3073,19.69],[98.4396,19.6877],[98.4888,19.7067],[98.5326,19.6759],[98.6238,19.7375],[98.7492,19.7635],[98.8079,19.8065],[98.8519,19.784],[98.8837,19.7455],[98.8993,19.7486],[98.9738,19.7881],[99.0009,19.821],[99.0168,20.041],[99.0735,20.1012],[99.1777,20.1218],[99.2957,20.0625],[99.4414,20.1016],[99.5103,20.1538],[99.5258,20.1962],[99.4863,20.2455],[99.4664,20.3222],[99.4206,20.3756],[99.44,20.3822],[99.5029,20.3452],[99.6519,20.3068],[99.7872,20.3341],[99.8377,20.4168],[99.9371,20.445],[99.9859,20.387],[100.0361,20.3731],[100.0993,20.3178],[100.103,20.2636],[100.1525,20.2392],[100.1677,20.2536],[100.1671,20.2926],[100.2092,20.313],[100.2404,20.3728],[100.3065,20.3997],[100.3443,20.39],[100.461,20.1907],[100.5128,20.1553],[100.5292,20.1497],[100.5465,20.1679],[100.5487,20.158],[100.5434,20.0666],[100.484,19.8807],[100.4314,19.8383],[100.3792,19.7457],[100.4743,19.525],[100.5667,19.4956],[100.607,19.5409],[100.6333,19.5422],[100.753,19.4824],[100.8798,19.6136],[101.0025,19.6106],[101.1247,19.5651],[101.208,19.5896],[101.2382,19.5782],[101.2549,19.5472],[101.2517,19.4944],[101.2382,19.4723],[101.1929,19.4528],[101.1724,19.3764],[101.1785,19.3466],[101.2113,19.3264],[101.2357,19.1281],[101.3179,19.0501],[101.3264,19.0205],[101.2839,18.9815],[101.2249,18.8748],[101.2286,18.7956],[101.2058,18.7301],[101.2348,18.6895],[101.2347,18.6584],[101.1609,18.5998],[101.1554,18.5567],[101.0779,18.5104],[101.0303,18.4278],[101.0823,18.3642],[101.1554,18.3229],[101.1301,18.2912],[101.1284,18.2457],[101.1628,18.1953],[101.1416,18.124],[101.1652,18.0534],[101.1123,18.0113],[101.0662,17.934],[101.0008,17.8848],[101.0003,17.8305],[100.9652,17.7976],[100.9755,17.7798],[100.9586,17.7641],[100.9538,17.6998],[100.8857,17.5959],[100.9019,17.5619],[100.9815,17.5476],[101.0493,17.4957],[101.1323,17.4617],[101.1667,17.5106],[101.2022,17.5232],[101.247,17.5922],[101.3838,17.6849],[101.404,17.7156],[101.3819,17.7207],[101.388,17.7293],[101.4535,17.751],[101.4683,17.7204],[101.5027,17.7654],[101.5563,17.7921],[101.534,17.8096],[101.5705,17.8289],[101.5776,17.8681],[101.6004,17.8544],[101.6362,17.8948],[101.7291,17.9122],[101.7658,18.0403],[101.7904,18.0736],[101.8838,18.0308],[101.9043,18.0371],[102.0785,18.2138],[102.1719,18.2003],[102.1916,18.1521],[102.2566,18.094],[102.3067,18.0515],[102.3664,18.0388],[102.4122,17.9942],[102.5996,17.9552],[102.6123,17.9153],[102.5953,17.8408],[102.6829,17.8101],[102.673,17.8654],[102.7374,17.8904],[102.8527,17.972],[102.9549,18.0121],[103.0205,17.9842],[103.0379,17.9907],[103.0731,18.0355],[103.0713,18.1256],[103.1386,18.1667],[103.1682,18.2498],[103.2954,18.2878],[103.2402,18.336],[103.2441,18.3801],[103.3069,18.4257],[103.3968,18.4414],[103.5488,18.4154],[103.6956,18.3532],[103.8014,18.3383],[103.8578,18.2865],[103.8813,18.2844],[103.9513,18.333],[104.0,18.3184],[104.0684,18.2154],[104.1224,18.0953],[104.2109,18.0086],[104.2703,17.874],[104.3526,17.8193],[104.452,17.666],[104.7026,17.5273],[104.7927,17.4235],[104.8193,17.3611],[104.8145,17.194],[104.7404,17.0026],[104.779,16.7049],[104.753,16.6148],[104.7545,16.5289],[104.8555,16.4541],[104.908,16.3534],[105.0155,16.2767],[105.0326,16.1653],[105.0581,16.1212],[105.2372,16.0508],[105.4221,16.0099],[105.3625,15.9548],[105.3606,15.9194],[105.412,15.7998],[105.448,15.7649],[105.5685,15.7494],[105.6409,15.682],[105.651,15.6346],[105.6043,15.4392],[105.4863,15.3749],[105.4775,15.3528],[105.499,15.3247],[105.558,15.3251],[105.564,15.2725],[105.4631,15.1894],[105.4438,15.1338],[105.4519,15.0948],[105.5209,15.0661],[105.5535,15.0053],[105.5931,14.9908],[105.5342,14.934],[105.5506,14.9023],[105.543,14.8801],[105.5178,14.8777],[105.5244,14.8372],[105.5016,14.8273],[105.4891,14.7863],[105.5051,14.7364],[105.4958,14.6599],[105.5075,14.564],[105.416,14.4282],[105.3677,14.4145],[105.3351,14.3857],[105.2947,14.3991],[105.2686,14.3644],[105.155,14.3305],[105.1014,14.2305],[105.0473,14.2141],[105.0077,14.2438],[104.9759,14.3011],[104.9738,14.3806],[104.8314,14.4118],[104.7717,14.4399],[104.7129,14.4068],[104.6929,14.434],[104.6684,14.4096],[104.6104,14.419],[104.5428,14.3604],[104.4926,14.374],[104.4526,14.3569],[104.2475,14.4011],[104.2013,14.378],[104.177,14.4042],[104.1409,14.366],[104.1102,14.3804],[104.0014,14.3451],[103.974,14.3673],[103.9198,14.3646],[103.8852,14.3404],[103.824,14.368],[103.6749,14.3865],[103.6715,14.4296],[103.6371,14.4433],[103.5961,14.4043],[103.5334,14.4191],[103.4497,14.3716],[103.4225,14.3848],[103.3629,14.3535],[103.2737,14.3511],[103.1382,14.3197],[102.9186,14.1855],[102.8698,14.0206],[102.7728,13.9361],[102.6986,13.7618],[102.5424,13.6697],[102.5411,13.6486],[102.5977,13.6055],[102.5132,13.5672],[102.3322,13.5646],[102.3134,13.541],[102.3301,13.4964],[102.3282,13.2752],[102.3821,13.1366],[102.4902,12.9961],[102.4672,12.9695],[102.4789,12.9536],[102.4648,12.9275],[102.5066,12.7875],[102.478,12.7196],[102.4793,12.6771],[102.5018,12.6498],[102.5885,12.6098],[102.7621,12.4361],[102.7651,12.4163],[102.7201,12.3612],[102.6922,12.1785],[102.7,12.1387],[102.7711,12.0374],[102.843,11.866],[102.9138,11.7655],[102.9288,11.6687],[102.9136,11.6459],[102.8933,11.7697]]],[[[97.8436,9.425],[97.8684,9.4204],[97.8718,9.3796],[97.84,9.4043],[97.8436,9.425]]],[[[99.6815,9.5129],[99.6681,9.5192],[99.6987,9.5422],[99.7035,9.5213],[99.6815,9.5129]]],[[[99.6781,9.6104],[99.6753,9.6245],[99.6843,9.62],[99.6781,9.6104]]],[[[99.1948,6.5331],[99.1585,6.5544],[99.1764,6.5502],[99.2063,6.5749],[99.2603,6.5658],[99.1948,6.5331]]],[[[99.6587,6.4923],[99.6341,6.5521],[99.6003,6.5834],[99.657,6.7238],[99.7044,6.5583],[99.6587,6.4923]]],[[[99.4539,7.239],[99.4172,7.2353],[99.3833,7.1941],[99.3855,7.2756],[99.4539,7.239]]],[[[99.1174,7.4792],[99.0999,7.4672],[99.0571,7.5041],[99.0281,7.5717],[99.0207,7.6369],[99.0349,7.6443],[99.0657,7.6151],[99.1174,7.4792]]],[[[99.1087,7.5942],[99.0446,7.6634],[99.1045,7.6694],[99.1275,7.6444],[99.1087,7.5942]]],[[[98.6024,8.0635],[98.6035,7.9038],[98.5773,7.9196],[98.5632,7.9863],[98.5823,8.0154],[98.5511,8.0425],[98.5285,8.1235],[98.6024,8.0635]]],[[[98.4317,7.9174],[98.4398,7.8866],[98.3997,7.8646],[98.3981,7.815],[98.3439,7.8329],[98.3231,7.7709],[98.2918,7.7775],[98.2678,7.8901],[98.2853,7.9038],[98.2542,7.9283],[98.2741,7.9537],[98.266,7.9738],[98.2814,8.0031],[98.2814,8.1918],[98.3301,8.1705],[98.3435,8.1092],[98.3601,8.1188],[98.4055,8.0825],[98.4226,8.0993],[98.4391,8.0825],[98.4186,7.9932],[98.3981,7.9726],[98.4219,7.9084],[98.4317,7.9174]]],[[[98.6209,8.09],[98.5701,8.1189],[98.5967,8.1303],[98.5923,8.1468],[98.624,8.1918],[98.6375,8.1713],[98.6209,8.09]]],[[[98.3228,9.098],[98.3093,9.049],[98.2542,9.0368],[98.2405,9.049],[98.2482,9.1501],[98.2733,9.16],[98.3079,9.133],[98.3228,9.098]]],[[[100.0907,9.5609],[100.0609,9.4638],[100.0193,9.4257],[99.9466,9.4182],[99.9263,9.566],[99.9595,9.5808],[100.0437,9.5642],[100.0759,9.585],[100.0907,9.5609]]],[[[98.4167,9.7335],[98.3981,9.7062],[98.3849,9.7279],[98.4116,9.7746],[98.4167,9.7335]]],[[[100.0793,9.7424],[100.0901,9.6653],[99.9876,9.7199],[99.9899,9.7429],[99.9706,9.7646],[99.9876,9.8018],[100.0672,9.7756],[100.0793,9.7424]]],[[[102.6082,11.6483],[102.5916,11.6186],[102.6057,11.6118],[102.5983,11.5634],[102.53,11.6049],[102.5442,11.626],[102.53,11.6801],[102.5552,11.7598],[102.5708,11.7328],[102.5641,11.708],[102.5896,11.71],[102.6082,11.6483]]],[[[102.4412,11.9674],[102.4275,11.9614],[102.3792,12.0028],[102.3762,11.9709],[102.3109,11.9811],[102.3184,11.9612],[102.2904,11.9748],[102.2942,12.0568],[102.2495,12.153],[102.3109,12.1462],[102.3428,12.1236],[102.4412,11.9674]]],[[[97.8718,9.473],[97.8994,9.4611],[97.8948,9.4387],[97.8699,9.4407],[97.87,9.4252],[97.8496,9.4421],[97.8718,9.473]]],[[[98.307,8.9579],[98.2616,8.8786],[98.2522,8.997],[98.2609,9.0129],[98.2991,8.9974],[98.307,8.9579]]]]}},{"type":"Feature","properties":{"code":"MMR"},"geometry":{"type":"MultiPolygon","coordinates":[[[[100.1871,21.4279],[100.3056,21.5],[100.4234,21.5],[100.4567,21.455],[100.546,21.453],[100.6217,21.4691],[100.6706,21.5],[101.1257,21.5],[100.8513,21.3148],[100.792,21.2974],[100.7254,21.3117],[100.6894,21.1593],[100.6255,21.0541],[100.5435,21.0274],[100.5573,20.992],[100.5292,20.9684],[100.5178,20.9063],[100.5157,20.8865],[100.5342,20.8739],[100.6231,20.8885],[100.6521,20.8766],[100.5367,20.8077],[100.3648,20.8282],[100.3297,20.786],[100.2902,20.775],[100.2216,20.7096],[100.1493,20.5481],[100.0993,20.3178],[100.0361,20.3731],[99.9859,20.387],[99.9371,20.445],[99.8377,20.4168],[99.7872,20.3341],[99.6519,20.3068],[99.5029,20.3452],[99.44,20.3822],[99.4206,20.3756],[99.4664,20.3222],[99.4863,20.2455],[99.5258,20.1962],[99.5103,20.1538],[99.4414,20.1016],[99.2957,20.0625],[99.1777,20.1218],[99.0735,20.1012],[99.0168,20.041],[99.0009,19.821],[98.9738,19.7881],[98.8993,19.7486],[98.8837,19.7455],[98.8519,19.784],[98.8079,19.8065],[98.7492,19.7635],[98.6238,19.7375],[98.5326,19.6759],[98.4888,19.7067],[98.4396,19.6877],[98.3073,19.69],[98.2375,19.6647],[98.2192,19.677],[98.2133,19.7178],[98.1114,19.7771],[98.0729,19.7773],[98.0456,19.8076],[98.0245,19.803],[98.0046,19.7239],[98.0083,19.6391],[97.8858,19.5728],[97.8486,19.5676],[97.8421,19.4794],[97.7671,19.3975],[97.8062,19.3011],[97.7983,19.2814],[97.7641,19.2664],[97.8126,19.2085],[97.8108,19.1122],[97.7278,19.0371],[97.7033,18.9644],[97.6578,18.9257],[97.7234,18.852],[97.7597,18.6228],[97.7457,18.5711],[97.6179,18.5532],[97.5095,18.4913],[97.4275,18.4895],[97.3889,18.5422],[97.3514,18.5512],[97.4431,18.4033],[97.4526,18.3336],[97.4865,18.2921],[97.5283,18.2653],[97.5738,18.3331],[97.6376,18.3063],[97.6433,18.273],[97.6179,18.2417],[97.6843,18.1461],[97.6942,18.0615],[97.7201,18.0531],[97.7541,17.969],[97.7201,17.9432],[97.6855,17.8807],[97.6991,17.8333],[97.6761,17.8303],[97.7496,17.7398],[97.7593,17.6915],[97.9338,17.5318],[97.9828,17.5054],[98.0355,17.405],[98.0887,17.3728],[98.0926,17.3122],[98.279,17.1366],[98.2683,17.1077],[98.2944,17.1076],[98.2862,17.0874],[98.2997,17.0647],[98.4179,17.029],[98.4745,16.9504],[98.4845,16.9059],[98.5095,16.8927],[98.5246,16.8504],[98.5006,16.8622],[98.49,16.8432],[98.5175,16.803],[98.4745,16.7767],[98.4567,16.7232],[98.4863,16.701],[98.5123,16.6433],[98.5616,16.6017],[98.5642,16.552],[98.6316,16.4631],[98.6295,16.4027],[98.6633,16.2867],[98.6824,16.2735],[98.7886,16.3746],[98.8187,16.4556],[98.8396,16.4724],[98.8434,16.4384],[98.9025,16.3816],[98.8837,16.2588],[98.8431,16.2087],[98.8354,16.1445],[98.8072,16.1105],[98.783,16.1024],[98.7584,16.1192],[98.6796,16.1261],[98.6587,16.1163],[98.6191,16.051],[98.547,16.0475],[98.5838,15.977],[98.5686,15.9202],[98.5744,15.836],[98.5403,15.712],[98.5671,15.4525],[98.5599,15.3553],[98.5336,15.326],[98.5155,15.3635],[98.4745,15.3835],[98.4034,15.3601],[98.3991,15.3218],[98.3775,15.2965],[98.3947,15.2801],[98.3852,15.2563],[98.283,15.29],[98.2329,15.2268],[98.1772,15.2206],[98.1907,15.1792],[98.1604,15.1064],[98.199,15.0514],[98.1911,14.9881],[98.2216,14.9213],[98.2433,14.8051],[98.2975,14.7212],[98.4182,14.6076],[98.5477,14.3777],[98.6015,14.3136],[98.6704,14.2679],[98.707,14.27],[98.7537,14.2001],[98.8723,14.1125],[98.9353,14.0854],[98.953,14.028],[99.0071,13.9496],[99.09,13.8701],[99.1012,13.7788],[99.1525,13.7149],[99.152,13.582],[99.1879,13.4271],[99.1869,13.3291],[99.1728,13.3009],[99.1902,13.2295],[99.1728,13.1995],[99.1141,13.1881],[99.1021,13.1713],[99.0932,13.0383],[99.1648,12.9755],[99.1532,12.9136],[99.1753,12.8334],[99.2107,12.7923],[99.2245,12.7175],[99.2667,12.7028],[99.2769,12.6656],[99.4033,12.5759],[99.4042,12.5081],[99.387,12.4659],[99.4738,12.1873],[99.4523,12.1294],[99.5417,12.1407],[99.5184,12.0259],[99.574,11.9763],[99.5614,11.8729],[99.63,11.8158],[99.6069,11.7257],[99.5426,11.6405],[99.4498,11.6138],[99.4282,11.4969],[99.387,11.4515],[99.3643,11.3767],[99.2433,11.1977],[99.213,11.1083],[99.0769,10.9965],[99.0551,10.9453],[99.0056,10.9588],[98.9923,10.948],[98.9796,10.9077],[98.9899,10.8604],[98.9745,10.8242],[98.8921,10.8085],[98.8682,10.7699],[98.8301,10.7636],[98.7667,10.6888],[98.7479,10.6231],[98.7773,10.5832],[98.7904,10.5003],[98.7474,10.3505],[98.7189,10.3126],[98.6961,10.2237],[98.5431,9.9875],[98.521,10.029],[98.5139,10.1469],[98.4896,10.1979],[98.5285,10.3642],[98.4942,10.4525],[98.4955,10.5569],[98.4634,10.63],[98.4593,10.7154],[98.4636,10.7294],[98.4983,10.7316],[98.5285,10.6931],[98.5383,10.7187],[98.521,10.741],[98.5437,10.7451],[98.5632,10.7273],[98.5999,10.8055],[98.5967,10.8371],[98.6309,10.8508],[98.5864,10.861],[98.5816,10.882],[98.648,10.9191],[98.6731,10.9055],[98.7124,10.9244],[98.7202,10.9805],[98.6929,11.0085],[98.7224,11.0449],[98.7066,11.0978],[98.6763,11.1006],[98.6582,11.132],[98.7241,11.1562],[98.7593,11.2689],[98.7219,11.3501],[98.7271,11.3852],[98.698,11.388],[98.7153,11.4432],[98.7749,11.4535],[98.7544,11.5224],[98.7289,11.5176],[98.7179,11.5319],[98.7356,11.642],[98.7522,11.6817],[98.8171,11.6774],[98.8226,11.708],[98.8916,11.6937],[98.8767,11.7226],[98.8049,11.7365],[98.783,11.7551],[98.8257,11.8259],[98.8089,11.8513],[98.8161,11.8338],[98.7681,11.7619],[98.7442,11.7625],[98.7122,11.7365],[98.7031,11.6975],[98.6742,11.6852],[98.6104,11.7313],[98.606,11.7692],[98.6321,11.7929],[98.6035,11.8036],[98.624,11.8303],[98.6514,11.8303],[98.6809,11.8773],[98.7066,11.8786],[98.6941,11.8929],[98.549,11.8786],[98.5781,11.9067],[98.6641,11.9204],[98.6909,11.9543],[98.7202,11.9643],[98.7214,11.9978],[98.7031,12.0481],[98.7127,12.0636],[98.665,12.0602],[98.6338,12.0903],[98.6296,12.132],[98.7097,12.2043],[98.7033,12.2378],[98.6629,12.2368],[98.5967,12.194],[98.5632,12.2077],[98.5391,12.2418],[98.5684,12.2909],[98.6768,12.3153],[98.7066,12.3479],[98.6052,12.4289],[98.6162,12.4857],[98.7014,12.4987],[98.7097,12.5124],[98.64,12.5319],[98.6231,12.5582],[98.6514,12.6223],[98.6731,12.6254],[98.6677,12.6748],[98.6929,12.7253],[98.6484,12.7233],[98.6445,12.742],[98.6787,12.7563],[98.6178,12.7663],[98.6514,12.7973],[98.6343,12.8786],[98.5899,12.9196],[98.614,12.9543],[98.5838,13.0266],[98.5785,13.1868],[98.5005,13.2492],[98.4899,13.2978],[98.48,13.2839],[98.4605,13.3558],[98.4732,13.413],[98.4528,13.3795],[98.4453,13.4243],[98.4186,13.4546],[98.4264,13.4901],[98.3361,13.5986],[98.2883,13.6948],[98.302,13.701],[98.2448,13.7141],[98.2542,13.8518],[98.2337,13.9173],[98.2337,14.0026],[98.1921,14.0647],[98.179,14.0197],[98.1995,13.9927],[98.1983,13.9649],[98.1802,13.925],[98.1995,13.8692],[98.1795,13.7324],[98.1961,13.6684],[98.1685,13.5843],[98.1869,13.5439],[98.1711,13.5378],[98.1511,13.5576],[98.1443,13.5371],[98.1297,13.5823],[98.1511,13.606],[98.1375,13.6265],[98.1585,13.6423],[98.1511,13.6737],[98.1688,13.6808],[98.1033,13.701],[98.117,13.7289],[98.0921,13.7397],[98.0828,13.77],[98.0889,13.7951],[98.1101,13.7904],[98.1109,13.9022],[98.0823,13.9245],[98.0617,14.0101],[98.1077,14.11],[98.0964,14.1678],[98.1101,14.1678],[98.0418,14.2429],[97.9935,14.3305],[97.9797,14.3974],[98.0003,14.4687],[97.9661,14.4483],[97.9136,14.5867],[97.9251,14.6128],[97.8855,14.656],[97.8855,14.6841],[97.9041,14.709],[97.9431,14.7202],[97.9924,14.6637],[98.0276,14.6475],[97.9822,14.7153],[98.0003,14.7221],[97.9646,14.7471],[97.9729,14.7636],[97.9499,14.7989],[97.9312,14.7522],[97.8972,14.7978],[97.9022,14.7377],[97.8755,14.7167],[97.8504,14.7236],[97.7948,14.8803],[97.8128,14.9833],[97.7743,15.0175],[97.8084,15.0312],[97.7948,15.0585],[97.8228,15.2093],[97.7694,15.2233],[97.7264,15.3396],[97.7608,15.3942],[97.7948,15.4079],[97.7614,15.4905],[97.7743,15.5314],[97.7429,15.6045],[97.7437,15.6649],[97.7256,15.7013],[97.7339,15.7263],[97.7129,15.7573],[97.7271,15.8432],[97.7061,15.8603],[97.7123,15.8877],[97.6914,15.9123],[97.5757,16.0174],[97.5689,16.0624],[97.6196,16.1254],[97.6509,16.2713],[97.6231,16.3945],[97.6372,16.4774],[97.6738,16.5334],[97.7402,16.5593],[97.7129,16.5798],[97.6304,16.532],[97.4231,16.5234],[97.3703,16.4835],[97.3298,16.6798],[97.3112,16.6524],[97.2858,16.6589],[97.2554,16.6979],[97.2302,16.7691],[97.2405,16.8746],[97.2195,16.8262],[97.2046,16.8598],[97.2195,16.9013],[97.1916,16.9013],[97.1833,16.9215],[97.1983,17.0135],[97.1572,17.0869],[97.1745,17.1125],[97.2337,17.0952],[97.261,17.1073],[97.2026,17.1316],[97.1581,17.1293],[97.1306,17.0794],[97.1003,17.1338],[97.1096,17.1893],[97.0887,17.1935],[97.0686,17.2514],[97.0072,17.2781],[97.0134,17.2991],[96.8955,17.3847],[96.8831,17.4574],[96.8557,17.3885],[96.8421,17.409],[96.8215,17.3947],[96.9107,17.3171],[96.9109,17.2849],[96.8494,17.213],[96.8557,17.1688],[96.9102,17.0668],[96.9109,17.0248],[96.8791,16.9347],[96.8352,16.936],[96.8557,16.9013],[96.8079,16.9087],[96.8489,16.8603],[96.8113,16.7647],[96.7894,16.7561],[96.801,16.7374],[96.7163,16.6584],[96.6795,16.5749],[96.6159,16.518],[96.559,16.4969],[96.4363,16.4778],[96.3,16.5595],[96.3,21.5],[100.1078,21.4955],[100.1871,21.4279]]],[[[96.3364,16.4394],[96.3,16.3966],[96.3,16.4819],[96.3364,16.4394]]],[[[98.0081,9.8074],[98.0303,9.8334],[98.0569,9.8144],[98.0575,9.7969],[98.0376,9.7907],[98.0081,9.8074]]],[[[98.1927,10.4824],[98.1853,10.5012],[98.202,10.5243],[98.2337,10.5294],[98.2219,10.4981],[98.1927,10.4824]]],[[[98.4514,11.0019],[98.4403,10.9656],[98.4295,10.9777],[98.4514,11.0019]]],[[[97.4443,11.8002],[97.4797,11.778],[97.4645,11.7825],[97.4443,11.8002]]],[[[97.8528,12.8065],[97.8635,12.7668],[97.8369,12.7724],[97.8353,12.7928],[97.8528,12.8065]]],[[[98.2883,10.008],[98.2692,10.0026],[98.2439,9.9601],[98.179,9.9328],[98.1335,9.8456],[98.1172,9.882],[98.1275,9.9601],[98.2346,10.0542],[98.2957,10.0557],[98.28,10.051],[98.2883,10.008]]],[[[98.1716,10.1481],[98.179,10.1929],[98.2405,10.1723],[98.2337,10.1445],[98.2014,10.1181],[98.1858,10.0421],[98.1716,10.1481]]],[[[97.9251,10.4741],[97.9435,10.4438],[97.9177,10.4331],[97.9319,10.412],[97.9102,10.4019],[97.8894,10.42],[97.9041,10.4393],[97.8963,10.4875],[97.9115,10.4945],[97.9026,10.4793],[97.9251,10.4741]]],[[[98.5532,10.8328],[98.5415,10.7962],[98.5095,10.7866],[98.5042,10.8061],[98.5285,10.8201],[98.5005,10.8235],[98.4909,10.8808],[98.4937,10.8911],[98.5532,10.8328]]],[[[97.9518,10.9191],[97.9277,10.872],[97.8836,10.8446],[97.8963,10.9133],[97.9518,10.9191]]],[[[98.2764,10.7845],[98.2957,10.7819],[98.283,10.7565],[98.2957,10.7347],[98.2507,10.6931],[98.2322,10.7083],[98.2337,10.741],[98.2555,10.7464],[98.2337,10.7683],[98.2405,10.831],[98.1987,10.8817],[98.179,10.8986],[98.1716,10.885],[98.1653,10.9191],[98.1467,10.9245],[98.1003,10.882],[98.0774,10.8881],[98.1312,10.9464],[98.1409,10.9774],[98.1719,10.9787],[98.2156,10.9445],[98.2318,10.8703],[98.2707,10.8187],[98.2764,10.7845]]],[[[98.508,10.9464],[98.4771,10.9737],[98.5142,11.0358],[98.5247,11.0867],[98.5446,11.0312],[98.5415,10.9538],[98.5188,10.9711],[98.508,10.9464]]],[[[98.302,11.2412],[98.2473,11.2145],[98.22,11.2691],[98.2814,11.2759],[98.281,11.2458],[98.302,11.2412]]],[[[98.323,11.7313],[98.302,11.7142],[98.2752,11.4808],[98.2678,11.4882],[98.2609,11.4678],[98.2337,11.5019],[98.2268,11.4739],[98.202,11.4663],[98.22,11.4535],[98.1765,11.4492],[98.1653,11.4739],[98.1995,11.4882],[98.1875,11.535],[98.2131,11.5534],[98.1995,11.5805],[98.2405,11.6248],[98.2385,11.6871],[98.2783,11.7998],[98.2918,11.7989],[98.323,11.7313]]],[[[98.5555,11.7281],[98.549,11.6217],[98.5285,11.5805],[98.5353,11.5292],[98.459,11.5838],[98.4324,11.5667],[98.4317,11.6049],[98.4157,11.6044],[98.4186,11.6323],[98.3794,11.6911],[98.4055,11.708],[98.3799,11.7509],[98.4131,11.7734],[98.3708,11.7893],[98.4528,11.7893],[98.4453,11.8036],[98.5437,11.799],[98.5555,11.7281]]],[[[98.0617,11.6732],[98.0896,11.6323],[98.0117,11.7047],[98.0283,11.7172],[98.0225,11.7558],[98.0071,11.7619],[97.9998,11.8418],[98.0139,11.865],[98.0139,11.8166],[98.0523,11.776],[98.058,11.7291],[98.0823,11.7347],[98.0617,11.6732]]],[[[97.6667,11.8634],[97.6719,11.8377],[97.6509,11.8446],[97.6428,11.8677],[97.6644,11.906],[97.6667,11.8634]]],[[[98.2654,11.9085],[98.2848,11.8961],[98.2737,11.8533],[98.2542,11.8581],[98.2654,11.9085]]],[[[98.2461,11.9254],[98.2271,11.9539],[98.2522,11.9748],[98.2687,11.9423],[98.2461,11.9254]]],[[[98.6592,11.9487],[98.6582,11.9339],[98.5726,11.9316],[98.5159,11.8959],[98.478,11.8909],[98.4597,11.9337],[98.471,11.9881],[98.4403,12.0154],[98.4309,12.1007],[98.4391,12.112],[98.4732,12.0773],[98.5199,12.007],[98.6592,11.9487]]],[[[98.1375,12.1906],[98.1375,12.1387],[98.1167,12.1655],[98.0767,12.1619],[98.0394,12.2073],[98.0462,12.262],[98.0725,12.2895],[98.1195,12.2756],[98.1199,12.2301],[98.0964,12.1872],[98.1375,12.1906]]],[[[98.0396,12.3225],[98.0105,12.31],[98.0003,12.269],[97.9824,12.3064],[97.9456,12.31],[97.971,12.3449],[97.9661,12.3585],[97.9382,12.338],[97.94,12.3663],[98.0178,12.4027],[98.0054,12.3673],[98.0418,12.3585],[98.0456,12.3891],[98.0759,12.4274],[98.1045,12.383],[98.0877,12.3601],[98.0645,12.3598],[98.0396,12.3225]]],[[[98.5086,12.4103],[98.4821,12.4106],[98.4743,12.425],[98.4998,12.5131],[98.5169,12.4794],[98.5086,12.4103]]],[[[98.2899,12.5263],[98.2829,12.5039],[98.2605,12.4953],[98.2297,12.5274],[98.2568,12.5742],[98.2899,12.5263]]],[[[97.8457,12.598],[97.8605,12.57],[97.8499,12.5373],[97.8294,12.5571],[97.827,12.5907],[97.8457,12.598]]],[[[98.4653,12.4807],[98.3913,12.3615],[98.3499,12.3259],[98.302,12.338],[98.3361,12.4509],[98.3156,12.4956],[98.333,12.5192],[98.3027,12.5986],[98.3156,12.6874],[98.4055,12.639],[98.3981,12.5875],[98.4255,12.5297],[98.4509,12.604],[98.4707,12.556],[98.4653,12.4807]]],[[[98.3185,13.0914],[98.3364,13.0739],[98.302,13.0294],[98.3143,12.9255],[98.302,12.9133],[98.2405,13.1393],[98.2473,13.215],[98.2688,13.1989],[98.3035,13.083],[98.3185,13.0914]]],[[[97.9251,13.7836],[97.9177,13.7836],[97.9187,13.8533],[97.9382,13.8518],[97.9251,13.7836]]],[[[97.6644,15.5041],[97.6509,15.5922],[97.6602,15.5804],[97.6644,15.5041]]],[[[97.5714,16.2227],[97.5475,16.1999],[97.5169,16.2098],[97.5105,16.2542],[97.4593,16.3014],[97.4849,16.3639],[97.4548,16.4369],[97.4596,16.4774],[97.5205,16.5109],[97.6063,16.4835],[97.6106,16.4462],[97.5886,16.3998],[97.5714,16.2227]]]]}}]}